[{"OBJECT_NAME":"STARLINK-11305 [DTC]","OBJECT_ID":"2024-175E","EPOCH":"2025-12-31T06:33:26.887104","MEAN_MOTION":15.69712868,"ECCENTRICITY":0.0001173,"INCLINATION":53.159,"RA_OF_ASC_NODE":33.3358,"ARG_OF_PERICENTER":80.1639,"MEAN_ANOMALY":279.9511,"EPHEMERIS_TYPE":0,"CLASSIFICATION_TYPE":"U","NORAD_CAT_ID":61247,"ELEMENT_SET_NO":999,"REV_AT_EPOCH":7262,"BSTAR":7.130898e-6,"MEAN_MOTION_DOT":2.75e-6,"MEAN_MOTION_DDOT":0},{"OBJECT_NAME":"STARLINK-11317 [DTC]","OBJECT_ID":"2024-175F","EPOCH":"2025-12-31T06:26:22.856640","MEAN_MOTION":15.69718352,"ECCENTRICITY":0.00017555,"INCLINATION":53.1579,"RA_OF_ASC_NODE":33.3029,"ARG_OF_PERICENTER":79.5982,"MEAN_ANOMALY":280.5234,"EPHEMERIS_TYPE":0,"CLASSIFICATION_TYPE":"U","NORAD_CAT_ID":61248,"ELEMENT_SET_NO":999,"REV_AT_EPOCH":7262,"BSTAR":9.483049e-6,"MEAN_MOTION_DOT":5.6e-6,"MEAN_MOTION_DDOT":0},{"OBJECT_NAME":"STARLINK-11293 [DTC]","OBJECT_ID":"2024-175G","EPOCH":"2025-12-31T06:19:19.376544","MEAN_MOTION":15.69712194,"ECCENTRICITY":0.0001224,"INCLINATION":53.158,"RA_OF_ASC_NODE":33.2703,"ARG_OF_PERICENTER":76.697,"MEAN_ANOMALY":283.4185,"EPHEMERIS_TYPE":0,"CLASSIFICATION_TYPE":"U","NORAD_CAT_ID":61249,"ELEMENT_SET_NO":999,"REV_AT_EPOCH":7262,"BSTAR":2.95437e-6,"MEAN_MOTION_DOT":-2.31e-6,"MEAN_MOTION_DDOT":0},{"OBJECT_NAME":"STARLINK-11319 [DTC]","OBJECT_ID":"2024-175J","EPOCH":"2025-12-31T06:05:20.767776","MEAN_MOTION":15.69742118,"ECCENTRICITY":0.00025814,"INCLINATION":53.159,"RA_OF_ASC_NODE":33.9436,"ARG_OF_PERICENTER":31.6382,"MEAN_ANOMALY":328.4791,"EPHEMERIS_TYPE":0,"CLASSIFICATION_TYPE":"U","NORAD_CAT_ID":61251,"ELEMENT_SET_NO":999,"REV_AT_EPOCH":7261,"BSTAR":-4.2796281e-5,"MEAN_MOTION_DOT":-5.78e-5,"MEAN_MOTION_DDOT":0},{"OBJECT_NAME":"STARLINK-11318 [DTC]","OBJECT_ID":"2024-175K","EPOCH":"2025-12-31T07:29:57.108192","MEAN_MOTION":15.69720074,"ECCENTRICITY":0.00016248,"INCLINATION":53.1597,"RA_OF_ASC_NODE":33.5934,"ARG_OF_PERICENTER":68.6429,"MEAN_ANOMALY":291.4762,"EPHEMERIS_TYPE":0,"CLASSIFICATION_TYPE":"U","NORAD_CAT_ID":61252,"ELEMENT_SET_NO":999,"REV_AT_EPOCH":7379,"BSTAR":2.11566e-5,"MEAN_MOTION_DOT":1.975e-5,"MEAN_MOTION_DDOT":0},{"OBJECT_NAME":"STARLINK-11311 [DTC]","OBJECT_ID":"2024-175L","EPOCH":"2025-12-31T07:22:52.148928","MEAN_MOTION":15.69746112,"ECCENTRICITY":0.00011132,"INCLINATION":53.16,"RA_OF_ASC_NODE":33.5563,"ARG_OF_PERICENTER":108.2641,"MEAN_ANOMALY":251.8499,"EPHEMERIS_TYPE":0,"CLASSIFICATION_TYPE":"U","NORAD_CAT_ID":61253,"ELEMENT_SET_NO":999,"REV_AT_EPOCH":7383,"BSTAR":1.4572777e-5,"MEAN_MOTION_DOT":1.179e-5,"MEAN_MOTION_DDOT":0},{"OBJECT_NAME":"STARLINK-11306 [DTC]","OBJECT_ID":"2024-175M","EPOCH":"2025-12-31T07:15:50.002848","MEAN_MOTION":15.69711327,"ECCENTRICITY":0.00014331,"INCLINATION":53.1584,"RA_OF_ASC_NODE":33.5231,"ARG_OF_PERICENTER":108.6128,"MEAN_ANOMALY":251.5045,"EPHEMERIS_TYPE":0,"CLASSIFICATION_TYPE":"U","NORAD_CAT_ID":61254,"ELEMENT_SET_NO":999,"REV_AT_EPOCH":7382,"BSTAR":4.1437354e-5,"MEAN_MOTION_DOT":4.434e-5,"MEAN_MOTION_DDOT":0},{"OBJECT_NAME":"STARLINK-11313 [DTC]","OBJECT_ID":"2024-175N","EPOCH":"2025-12-31T07:08:45.807360","MEAN_MOTION":15.69727052,"ECCENTRICITY":0.00017117,"INCLINATION":53.1586,"RA_OF_ASC_NODE":33.4925,"ARG_OF_PERICENTER":77.4262,"MEAN_ANOMALY":282.6948,"EPHEMERIS_TYPE":0,"CLASSIFICATION_TYPE":"U","NORAD_CAT_ID":61255,"ELEMENT_SET_NO":999,"REV_AT_EPOCH":7262,"BSTAR":5.0527477e-5,"MEAN_MOTION_DOT":5.54e-5,"MEAN_MOTION_DDOT":0},{"OBJECT_NAME":"STARLINK-32431","OBJECT_ID":"2024-175P","EPOCH":"2025-12-31T02:37:47.496000","MEAN_MOTION":15.30196436,"ECCENTRICITY":0.0001101,"INCLINATION":53.1609,"RA_OF_ASC_NODE":152.5896,"ARG_OF_PERICENTER":93.8517,"MEAN_ANOMALY":266.261,"EPHEMERIS_TYPE":0,"CLASSIFICATION_TYPE":"U","NORAD_CAT_ID":61256,"ELEMENT_SET_NO":999,"REV_AT_EPOCH":7095,"BSTAR":2.8884394e-5,"MEAN_MOTION_DOT":4.96e-6,"MEAN_MOTION_DDOT":0},{"OBJECT_NAME":"STARLINK-32432","OBJECT_ID":"2024-175Q","EPOCH":"2025-12-30T17:18:02.292768","MEAN_MOTION":15.30186316,"ECCENTRICITY":0.00010541,"INCLINATION":53.16,"RA_OF_ASC_NODE":154.4294,"ARG_OF_PERICENTER":75.4722,"MEAN_ANOMALY":284.6396,"EPHEMERIS_TYPE":0,"CLASSIFICATION_TYPE":"U","NORAD_CAT_ID":61257,"ELEMENT_SET_NO":999,"REV_AT_EPOCH":7089,"BSTAR":-1.5539953e-5,"MEAN_MOTION_DOT":-8.19e-6,"MEAN_MOTION_DDOT":0},{"OBJECT_NAME":"STARLINK-32382","OBJECT_ID":"2024-175R","EPOCH":"2025-12-30T15:48:32.240736","MEAN_MOTION":15.3018795,"ECCENTRICITY":0.0001074,"INCLINATION":53.1589,"RA_OF_ASC_NODE":154.7499,"ARG_OF_PERICENTER":85.5919,"MEAN_ANOMALY":274.5204,"EPHEMERIS_TYPE":0,"CLASSIFICATION_TYPE":"U","NORAD_CAT_ID":61258,"ELEMENT_SET_NO":999,"REV_AT_EPOCH":7088,"BSTAR":-1.3623359e-5,"MEAN_MOTION_DOT":-7.62e-6,"MEAN_MOTION_DDOT":0},{"OBJECT_NAME":"STARLINK-32435","OBJECT_ID":"2024-175S","EPOCH":"2025-12-30T19:07:17.115168","MEAN_MOTION":15.3019151,"ECCENTRICITY":8.833e-5,"INCLINATION":53.1605,"RA_OF_ASC_NODE":154.1945,"ARG_OF_PERICENTER":99.5938,"MEAN_ANOMALY":260.5163,"EPHEMERIS_TYPE":0,"CLASSIFICATION_TYPE":"U","NORAD_CAT_ID":61259,"ELEMENT_SET_NO":999,"REV_AT_EPOCH":7090,"BSTAR":-2.196079e-6,"MEAN_MOTION_DOT":-4.24e-6,"MEAN_MOTION_DDOT":0},{"OBJECT_NAME":"STARLINK-32474","OBJECT_ID":"2024-175T","EPOCH":"2025-12-30T17:04:21.880704","MEAN_MOTION":15.30199369,"ECCENTRICITY":0.00010161,"INCLINATION":53.1596,"RA_OF_ASC_NODE":154.3618,"ARG_OF_PERICENTER":67.389,"MEAN_ANOMALY":292.7218,"EPHEMERIS_TYPE":0,"CLASSIFICATION_TYPE":"U","NORAD_CAT_ID":61260,"ELEMENT_SET_NO":999,"REV_AT_EPOCH":7089,"BSTAR":-1.8877303e-5,"MEAN_MOTION_DOT":-9.18e-6,"MEAN_MOTION_DDOT":0},{"OBJECT_NAME":"STARLINK-32447","OBJECT_ID":"2024-175U","EPOCH":"2025-12-30T15:34:51.711168","MEAN_MOTION":15.30191562,"ECCENTRICITY":8.29e-5,"INCLINATION":53.1598,"RA_OF_ASC_NODE":154.6895,"ARG_OF_PERICENTER":68.8271,"MEAN_ANOMALY":291.2819,"EPHEMERIS_TYPE":0,"CLASSIFICATION_TYPE":"U","NORAD_CAT_ID":61261,"ELEMENT_SET_NO":999,"REV_AT_EPOCH":7088,"BSTAR":6.43538e-7,"MEAN_MOTION_DOT":-3.4e-6,"MEAN_MOTION_DDOT":0},{"OBJECT_NAME":"STARLINK-32446","OBJECT_ID":"2024-175V","EPOCH":"2025-12-30T15:54:36.880704","MEAN_MOTION":15.30192741,"ECCENTRICITY":8.085e-5,"INCLINATION":53.1605,"RA_OF_ASC_NODE":154.7784,"ARG_OF_PERICENTER":102.4879,"MEAN_ANOMALY":257.6212,"EPHEMERIS_TYPE":0,"CLASSIFICATION_TYPE":"U","NORAD_CAT_ID":61262,"ELEMENT_SET_NO":999,"REV_AT_EPOCH":7088,"BSTAR":3.9255873e-5,"MEAN_MOTION_DOT":8.04e-6,"MEAN_MOTION_DDOT":0},{"OBJECT_NAME":"STARLINK-32174","OBJECT_ID":"2024-183A","EPOCH":"2025-12-30T15:47:29.044320","MEAN_MOTION":15.30177886,"ECCENTRICITY":0.00017034,"INCLINATION":53.1603,"RA_OF_ASC_NODE":90.2928,"ARG_OF_PERICENTER":103.0249,"MEAN_ANOMALY":257.0942,"EPHEMERIS_TYPE":0,"CLASSIFICATION_TYPE":"U","NORAD_CAT_ID":61509,"ELEMENT_SET_NO":999,"REV_AT_EPOCH":6926,"BSTAR":2.5366378e-5,"MEAN_MOTION_DOT":3.91e-6,"MEAN_MOTION_DDOT":0}]
