STARLINK-11305 [DTC]    
1 61247U 24175E   25365.27322786  .00000275  00000+0  71309-5 0  9995
2 61247  53.1590  33.3358 0001173  80.1639 279.9511 15.69712868 72623
STARLINK-11317 [DTC]    
1 61248U 24175F   25365.26832010  .00000560  00000+0  94830-5 0  9992
2 61248  53.1579  33.3029 0001755  79.5982 280.5234 15.69718352 72629
STARLINK-11293 [DTC]    
1 61249U 24175G   25365.26341871 -.00000231  00000+0  29544-5 0  9999
2 61249  53.1580  33.2703 0001224  76.6970 283.4185 15.69712194 72621
STARLINK-11319 [DTC]    
1 61251U 24175J   25365.25371259 -.00005780  00000+0 -42796-4 0  9992
2 61251  53.1590  33.9436 0002581  31.6382 328.4791 15.69742118 72611
STARLINK-11318 [DTC]    
1 61252U 24175K   25365.31246653  .00001975  00000+0  21157-4 0  9997
2 61252  53.1597  33.5934 0001624  68.6429 291.4762 15.69720074 73791
STARLINK-11311 [DTC]    
1 61253U 24175L   25365.30754802  .00001179  00000+0  14573-4 0  9997
2 61253  53.1600  33.5563 0001113 108.2641 251.8499 15.69746112 73838
STARLINK-11306 [DTC]    
1 61254U 24175M   25365.30266207  .00004434  00000+0  41437-4 0  9991
2 61254  53.1584  33.5231 0001433 108.6128 251.5045 15.69711327 73824
STARLINK-11313 [DTC]    
1 61255U 24175N   25365.29775240  .00005540  00000+0  50527-4 0  9991
2 61255  53.1586  33.4925 0001711  77.4262 282.6948 15.69727052 72623
STARLINK-32431          
1 61256U 24175P   25365.10957750  .00000496  00000+0  28884-4 0  9996
2 61256  53.1609 152.5896 0001101  93.8517 266.2610 15.30196436 70950
STARLINK-32432          
1 61257U 24175Q   25364.72085987 -.00000819  00000+0 -15540-4 0  9994
2 61257  53.1600 154.4294 0001054  75.4722 284.6396 15.30186316 70890
STARLINK-32382          
1 61258U 24175R   25364.65870649 -.00000762  00000+0 -13623-4 0  9991
2 61258  53.1589 154.7499 0001074  85.5919 274.5204 15.30187950 70889
STARLINK-32435          
1 61259U 24175S   25364.79672587 -.00000424  00000+0 -21961-5 0  9998
2 61259  53.1605 154.1945 0000883  99.5938 260.5163 15.30191510 70901
STARLINK-32474          
1 61260U 24175T   25364.71136436 -.00000918  00000+0 -18877-4 0  9999
2 61260  53.1596 154.3618 0001016  67.3890 292.7218 15.30199369 70896
STARLINK-32447          
1 61261U 24175U   25364.64920962 -.00000340  00000+0  64354-6 0  9998
2 61261  53.1598 154.6895 0000829  68.8271 291.2819 15.30191562 70886
STARLINK-32446          
1 61262U 24175V   25364.66292686  .00000804  00000+0  39256-4 0  9991
2 61262  53.1605 154.7784 0000808 102.4879 257.6212 15.30192741 70883
STARLINK-32174          
1 61509U 24183A   25364.65797505  .00000391  00000+0  25366-4 0  9991
2 61509  53.1603  90.2928 0001703 103.0249 257.0942 15.30177886 69269
